{
  "type": "FeatureCollection",
  "features": [
    {
      "type": "Feature",
      "geometry": {
        "type": "Polygon",
        "coordinates": [
          [
            [
              -77.4602,
              37.53894705529845
            ],
            [
              -77.46224823344112,
              37.53908912985396
            ],
            [
              -77.46423425517534,
              37.53951103825264
            ],
            [
              -77.46609774101502,
              37.540199965615784
            ],
            [
              -77.46778208479098,
              37.54113498627367
            ],
            [
              -77.46923611650504,
              37.54228769873288
            ],
            [
              -77.47041565614701,
              37.54362308760016
            ],
            [
              -77.47128485607986,
              37.54510058639913
            ],
            [
              -77.47181729120602,
              37.54667530912036
            ],
            [
              -77.47199676367592,
              37.548299413210344
            ],
            [
              -77.47181779747189,
              37.549923552688064
            ],
            [
              -77.47128580754844,
              37.551498377304256
            ],
            [
              -77.47041693805717,
              37.55297603221535
            ],
            [
              -77.4692375742395,
              37.554311612582495
            ],
            [
              -77.46778354252545,
              37.555464528831614
            ],
            [
              -77.46609902292522,
              37.55639974098938
            ],
            [
              -77.46423520664396,
              37.55708882446466
            ],
            [
              -77.46224873970698,
              37.55751083475829
            ],
            [
              -77.4602,
              37.55765294470155
            ],
            [
              -77.45815126029302,
              37.55751083475829
            ],
            [
              -77.45616479335605,
              37.55708882446466
            ],
            [
              -77.4543009770748,
              37.55639974098938
            ],
            [
              -77.45261645747455,
              37.555464528831614
            ],
            [
              -77.4511624257605,
              37.554311612582495
            ],
            [
              -77.44998306194285,
              37.55297603221535
            ],
            [
              -77.44911419245157,
              37.551498377304256
            ],
            [
              -77.44858220252813,
              37.549923552688064
            ],
            [
              -77.4484032363241,
              37.548299413210344
            ],
            [
              -77.44858270879398,
              37.54667530912036
            ],
            [
              -77.44911514392015,
              37.54510058639913
            ],
            [
              -77.449984343853,
              37.54362308760016
            ],
            [
              -77.45116388349497,
              37.54228769873288
            ],
            [
              -77.45261791520903,
              37.54113498627367
            ],
            [
              -77.454302258985,
              37.540199965615784
            ],
            [
              -77.45616574482467,
              37.53951103825264
            ],
            [
              -77.4581517665589,
              37.53908912985396
            ],
            [
              -77.4602,
              37.53894705529845
            ]
          ]
        ]
      },
      "properties": {
        "zone": "strong",
        "fillColor": "#22c55e",
        "strokeColor": "#15803d"
      }
    },
    {
      "type": "Feature",
      "geometry": {
        "type": "Polygon",
        "coordinates": [
          [
            [
              -77.4602,
              37.533910854305304
            ],
            [
              -77.46335091877718,
              37.5341294158941
            ],
            [
              -77.46640615250342,
              37.53477846355263
            ],
            [
              -77.46927291695947,
              37.53583828716759
            ],
            [
              -77.47186414223276,
              37.53727670119217
            ],
            [
              -77.47410111403956,
              37.539050020580255
            ],
            [
              -77.47591586315133,
              37.541104385671446
            ],
            [
              -77.47725323059798,
              37.543377396067285
            ],
            [
              -77.47807254589948,
              37.5458000041703
            ],
            [
              -77.47834886706352,
              37.54829861114875
            ],
            [
              -77.47807374416182,
              37.550797301885176
            ],
            [
              -77.47725548259457,
              37.55322015115966
            ],
            [
              -77.47591889725818,
              37.555493531051624
            ],
            [
              -77.47410456429864,
              37.557548349396946
            ],
            [
              -77.47186759249193,
              37.55932215112801
            ],
            [
              -77.46927595106654,
              37.56076101840674
            ],
            [
              -77.46640840450026,
              37.56182121151788
            ],
            [
              -77.46335211703968,
              37.562470500347914
            ],
            [
              -77.4602,
              37.5626891456947
            ],
            [
              -77.45704788296032,
              37.562470500347914
            ],
            [
              -77.45399159549976,
              37.56182121151788
            ],
            [
              -77.45112404893348,
              37.56076101840674
            ],
            [
              -77.44853240750807,
              37.55932215112801
            ],
            [
              -77.44629543570137,
              37.557548349396946
            ],
            [
              -77.44448110274183,
              37.555493531051624
            ],
            [
              -77.44314451740544,
              37.55322015115966
            ],
            [
              -77.44232625583818,
              37.550797301885176
            ],
            [
              -77.4420511329365,
              37.54829861114875
            ],
            [
              -77.44232745410054,
              37.5458000041703
            ],
            [
              -77.44314676940203,
              37.543377396067285
            ],
            [
              -77.44448413684869,
              37.541104385671446
            ],
            [
              -77.44629888596046,
              37.539050020580255
            ],
            [
              -77.44853585776725,
              37.53727670119217
            ],
            [
              -77.45112708304053,
              37.53583828716759
            ],
            [
              -77.45399384749659,
              37.53477846355263
            ],
            [
              -77.45704908122283,
              37.5341294158941
            ],
            [
              -77.4602,
              37.533910854305304
            ]
          ]
        ]
      },
      "properties": {
        "zone": "usable",
        "fillColor": "#eab308",
        "strokeColor": "#a16207"
      }
    }
  ]
}