{
  "type": "FeatureCollection",
  "features": [
    {
      "type": "Feature",
      "geometry": {
        "type": "Polygon",
        "coordinates": [
          [
            [
              -77.469064,
              37.49253948758569
            ],
            [
              -77.48284176363167,
              37.49349507694649
            ],
            [
              -77.49620192880741,
              37.496332881997255
            ],
            [
              -77.50873946159257,
              37.500966885018705
            ],
            [
              -77.520074090159,
              37.50725660228706
            ],
            [
              -77.52986177789253,
              37.51501131438479
            ],
            [
              -77.53780513318479,
              37.52399581417184
            ],
            [
              -77.54366244490362,
              37.53393750338885
            ],
            [
              -77.54725506917003,
              37.54453462827196
            ],
            [
              -77.54847293799665,
              37.55546540961942
            ],
            [
              -77.5472780128105,
              37.56639779456026
            ],
            [
              -77.54370556485276,
              37.57699953680743
            ],
            [
              -77.53786322855545,
              37.586948300239385
            ],
            [
              -77.52992784153894,
              37.595941477840334
            ],
            [
              -77.52014015383563,
              37.60370542468033
            ],
            [
              -77.50879755703977,
              37.610003819773084
            ],
            [
              -77.49624504884358,
              37.614644897025585
            ],
            [
              -77.48286470732893,
              37.617487319454554
            ],
            [
              -77.469064,
              37.618444512414314
            ],
            [
              -77.45526329267108,
              37.617487319454554
            ],
            [
              -77.44188295115643,
              37.614644897025585
            ],
            [
              -77.42933044296024,
              37.610003819773084
            ],
            [
              -77.41798784616438,
              37.60370542468033
            ],
            [
              -77.40820015846107,
              37.595941477840334
            ],
            [
              -77.40026477144455,
              37.586948300239385
            ],
            [
              -77.39442243514726,
              37.57699953680743
            ],
            [
              -77.39084998718951,
              37.56639779456026
            ],
            [
              -77.38965506200336,
              37.55546540961942
            ],
            [
              -77.39087293082997,
              37.54453462827196
            ],
            [
              -77.39446555509639,
              37.53393750338885
            ],
            [
              -77.40032286681522,
              37.52399581417184
            ],
            [
              -77.40826622210749,
              37.51501131438479
            ],
            [
              -77.418053909841,
              37.50725660228706
            ],
            [
              -77.42938853840744,
              37.500966885018705
            ],
            [
              -77.4419260711926,
              37.496332881997255
            ],
            [
              -77.45528623636834,
              37.49349507694649
            ],
            [
              -77.469064,
              37.49253948758569
            ]
          ]
        ]
      },
      "properties": {
        "zone": "strong",
        "color": "#2563eb",
        "stroke": "#1d4ed8"
      }
    },
    {
      "type": "Feature",
      "geometry": {
        "type": "Polygon",
        "coordinates": [
          [
            [
              -77.469064,
              37.46555983940813
            ],
            [
              -77.48873951790323,
              37.466924477717356
            ],
            [
              -77.5078193083319,
              37.47097707563397
            ],
            [
              -77.52572549237719,
              37.477594919930084
            ],
            [
              -77.5419153760113,
              37.486577579057084
            ],
            [
              -77.55589777393627,
              37.4976529154076
            ],
            [
              -77.56724784485311,
              37.510485258522785
            ],
            [
              -77.57561999823682,
              37.52468550231218
            ],
            [
              -77.58075848093438,
              37.53982283169706
            ],
            [
              -77.58250531190814,
              37.55543773393294
            ],
            [
              -77.58080530463988,
              37.57105590880147
            ],
            [
              -77.57570799805902,
              37.58620266136052
            ],
            [
              -77.56736640677762,
              37.60041734230198
            ],
            [
              -77.55603259770054,
              37.61326739522516
            ],
            [
              -77.54205019990147,
              37.62436157798298
            ],
            [
              -77.52584405462044,
              37.63336194696173
            ],
            [
              -77.50790730851655,
              37.63999422847696
            ],
            [
              -77.48878634184531,
              37.64405624962671
            ],
            [
              -77.469064,
              37.645424160591865
            ],
            [
              -77.4493416581547,
              37.64405624962671
            ],
            [
              -77.43022069148346,
              37.63999422847696
            ],
            [
              -77.41228394537957,
              37.63336194696173
            ],
            [
              -77.39607780009855,
              37.62436157798298
            ],
            [
              -77.38209540229947,
              37.61326739522516
            ],
            [
              -77.37076159322238,
              37.60041734230198
            ],
            [
              -77.36242000194099,
              37.58620266136052
            ],
            [
              -77.35732269536012,
              37.57105590880147
            ],
            [
              -77.35562268809187,
              37.55543773393294
            ],
            [
              -77.35736951906563,
              37.53982283169706
            ],
            [
              -77.36250800176319,
              37.52468550231218
            ],
            [
              -77.37088015514689,
              37.510485258522785
            ],
            [
              -77.38223022606375,
              37.4976529154076
            ],
            [
              -77.3962126239887,
              37.486577579057084
            ],
            [
              -77.41240250762282,
              37.477594919930084
            ],
            [
              -77.4303086916681,
              37.47097707563397
            ],
            [
              -77.4493884820968,
              37.466924477717356
            ],
            [
              -77.469064,
              37.46555983940813
            ]
          ]
        ]
      },
      "properties": {
        "zone": "usable",
        "color": "#3b82f6",
        "stroke": "#2563eb"
      }
    }
  ]
}