{
  "type": "FeatureCollection",
  "features": [
    {
      "type": "Feature",
      "geometry": {
        "type": "Polygon",
        "coordinates": [
          [
            [
              -77.469064,
              37.5509953919704
            ],
            [
              -77.47004888580807,
              37.55106370145977
            ],
            [
              -77.47100385163921,
              37.55126655474761
            ],
            [
              -77.47189988598323,
              37.55159778930197
            ],
            [
              -77.4727097667367,
              37.55204734235649
            ],
            [
              -77.4734088879172,
              37.55260155646616
            ],
            [
              -77.47397600708226,
              37.553243594241074
            ],
            [
              -77.47439389077007,
              37.55395394968568
            ],
            [
              -77.47464983835039,
              37.5547110406377
            ],
            [
              -77.47473606834215,
              37.555491864334755
            ],
            [
              -77.4746499554099,
              37.556272696213426
            ],
            [
              -77.47439411076999,
              37.55702981072347
            ],
            [
              -77.47397630348735,
              37.55774020226106
            ],
            [
              -77.47340922497662,
              37.558382284310575
            ],
            [
              -77.47271010379613,
              37.55893654553629
            ],
            [
              -77.47190018238832,
              37.55938614286541
            ],
            [
              -77.47100407163913,
              37.55971741351275
            ],
            [
              -77.47004900286758,
              37.55992029035862
            ],
            [
              -77.469064,
              37.5599886080296
            ],
            [
              -77.46807899713242,
              37.55992029035862
            ],
            [
              -77.46712392836088,
              37.55971741351275
            ],
            [
              -77.4662278176117,
              37.55938614286541
            ],
            [
              -77.46541789620387,
              37.55893654553629
            ],
            [
              -77.46471877502339,
              37.558382284310575
            ],
            [
              -77.46415169651266,
              37.55774020226106
            ],
            [
              -77.46373388923001,
              37.55702981072347
            ],
            [
              -77.4634780445901,
              37.556272696213426
            ],
            [
              -77.46339193165785,
              37.555491864334755
            ],
            [
              -77.46347816164962,
              37.5547110406377
            ],
            [
              -77.46373410922995,
              37.55395394968568
            ],
            [
              -77.46415199291775,
              37.553243594241074
            ],
            [
              -77.4647191120828,
              37.55260155646616
            ],
            [
              -77.4654182332633,
              37.55204734235649
            ],
            [
              -77.46622811401677,
              37.55159778930197
            ],
            [
              -77.4671241483608,
              37.55126655474761
            ],
            [
              -77.46807911419194,
              37.55106370145977
            ],
            [
              -77.469064,
              37.5509953919704
            ]
          ]
        ]
      },
      "properties": {
        "zone": "strong",
        "color": "#2563eb",
        "stroke": "#1d4ed8"
      }
    },
    {
      "type": "Feature",
      "geometry": {
        "type": "Polygon",
        "coordinates": [
          [
            [
              -77.469064,
              37.515022527733656
            ],
            [
              -77.47792376201765,
              37.51563701887331
            ],
            [
              -77.48651475157612,
              37.51746185111407
            ],
            [
              -77.49457631136238,
              37.52044166373777
            ],
            [
              -77.50186377394358,
              37.524486048264365
            ],
            [
              -77.50815586224745,
              37.52947227963341
            ],
            [
              -77.51326139497466,
              37.5352490257024
            ],
            [
              -77.51702509537992,
              37.54164092468452
            ],
            [
              -77.51933232696953,
              37.54845389393313
            ],
            [
              -77.5201126101229,
              37.555481011116434
            ],
            [
              -77.51934180878591,
              37.562508791010025
            ],
            [
              -77.51704291536734,
              37.56932366845703
            ],
            [
              -77.51328540378226,
              37.575718490969194
            ],
            [
              -77.50818316406095,
              37.58149882327945
            ],
            [
              -77.50189107576223,
              37.58648887104771
            ],
            [
              -77.49460032018304,
              37.59053684181738
            ],
            [
              -77.48653257157841,
              37.59351957797387
            ],
            [
              -77.47793324384372,
              37.59534631841544
            ],
            [
              -77.469064,
              37.59596147226634
            ],
            [
              -77.46019475615628,
              37.59534631841544
            ],
            [
              -77.4515954284216,
              37.59351957797387
            ],
            [
              -77.44352767981697,
              37.59053684181738
            ],
            [
              -77.43623692423778,
              37.58648887104771
            ],
            [
              -77.42994483593905,
              37.58149882327945
            ],
            [
              -77.42484259621776,
              37.575718490969194
            ],
            [
              -77.42108508463267,
              37.56932366845703
            ],
            [
              -77.4187861912141,
              37.562508791010025
            ],
            [
              -77.41801538987713,
              37.555481011116434
            ],
            [
              -77.41879567303047,
              37.54845389393313
            ],
            [
              -77.4211029046201,
              37.54164092468452
            ],
            [
              -77.42486660502534,
              37.5352490257024
            ],
            [
              -77.42997213775256,
              37.52947227963341
            ],
            [
              -77.43626422605642,
              37.524486048264365
            ],
            [
              -77.44355168863763,
              37.52044166373777
            ],
            [
              -77.45161324842388,
              37.51746185111407
            ],
            [
              -77.46020423798235,
              37.51563701887331
            ],
            [
              -77.469064,
              37.515022527733656
            ]
          ]
        ]
      },
      "properties": {
        "zone": "usable",
        "color": "#3b82f6",
        "stroke": "#2563eb"
      }
    },
    {
      "type": "Feature",
      "geometry": {
        "type": "Polygon",
        "coordinates": [
          [
            [
              -77.469064,
              37.51052591970406
            ],
            [
              -77.47890759574751,
              37.51120864680108
            ],
            [
              -77.48845262577301,
              37.51323612058453
            ],
            [
              -77.49740953273536,
              37.516546843293874
            ],
            [
              -77.50550650993982,
              37.52104038274913
            ],
            [
              -77.51249771855439,
              37.52658040439334
            ],
            [
              -77.51817073509305,
              37.53299878975857
            ],
            [
              -77.52235300556855,
              37.5401007190966
            ],
            [
              -77.52491711026907,
              37.5476705668136
            ],
            [
              -77.52578467660634,
              37.55547843347744
            ],
            [
              -77.52492881621403,
              37.56328711830197
            ],
            [
              -77.5223750055513,
              37.57085932181905
            ],
            [
              -77.51820037559493,
              37.577964860452916
            ],
            [
              -77.51253142449687,
              37.58438767327614
            ],
            [
              -77.50554021589018,
              37.58993240652419
            ],
            [
              -77.49743917325715,
              37.59443037344017
            ],
            [
              -77.48847462577842,
              37.59774470544956
            ],
            [
              -77.47891930170725,
              37.599774535036765
            ],
            [
              -77.469064,
              37.60045808029594
            ],
            [
              -77.45920869829276,
              37.599774535036765
            ],
            [
              -77.44965337422158,
              37.59774470544956
            ],
            [
              -77.44068882674286,
              37.59443037344017
            ],
            [
              -77.43258778410983,
              37.58993240652419
            ],
            [
              -77.42559657550314,
              37.58438767327614
            ],
            [
              -77.41992762440508,
              37.577964860452916
            ],
            [
              -77.41575299444871,
              37.57085932181905
            ],
            [
              -77.41319918378598,
              37.56328711830197
            ],
            [
              -77.41234332339367,
              37.55547843347744
            ],
            [
              -77.41321088973093,
              37.5476705668136
            ],
            [
              -77.41577499443146,
              37.5401007190966
            ],
            [
              -77.41995726490697,
              37.53299878975857
            ],
            [
              -77.42563028144562,
              37.52658040439334
            ],
            [
              -77.43262149006019,
              37.52104038274913
            ],
            [
              -77.44071846726465,
              37.516546843293874
            ],
            [
              -77.449675374227,
              37.51323612058453
            ],
            [
              -77.45922040425249,
              37.51120864680108
            ],
            [
              -77.469064,
              37.51052591970406
            ]
          ]
        ]
      },
      "properties": {
        "zone": "fringe",
        "color": "#93c5fd",
        "stroke": "#60a5fa"
      }
    }
  ]
}